[{"OBJECT_NAME":"STARLINK-5909","OBJECT_ID":"2023-037AA","EPOCH":"2026-03-09T21:59:20.704704","MEAN_MOTION":14.98313639,"ECCENTRICITY":0.00021987,"INCLINATION":69.998,"RA_OF_ASC_NODE":283.9048,"ARG_OF_PERICENTER":269.5464,"MEAN_ANOMALY":90.5443,"EPHEMERIS_TYPE":0,"CLASSIFICATION_TYPE":"U","NORAD_CAT_ID":55938,"ELEMENT_SET_NO":999,"REV_AT_EPOCH":16401,"BSTAR":5.5307657e-5,"MEAN_MOTION_DOT":5.67e-6,"MEAN_MOTION_DDOT":0},{"OBJECT_NAME":"HAWK-8C","OBJECT_ID":"2024-066H","EPOCH":"2026-03-09T11:22:19.381152","MEAN_MOTION":14.98770227,"ECCENTRICITY":0.00039352,"INCLINATION":45.6068,"RA_OF_ASC_NODE":72.8656,"ARG_OF_PERICENTER":260.2975,"MEAN_ANOMALY":99.7462,"EPHEMERIS_TYPE":0,"CLASSIFICATION_TYPE":"U","NORAD_CAT_ID":59449,"ELEMENT_SET_NO":999,"REV_AT_EPOCH":10486,"BSTAR":0.00021518384,"MEAN_MOTION_DOT":2.4e-5,"MEAN_MOTION_DDOT":0}]
